ID,District Name,Mailing Address,City,State,ZIP
9545,21ST CENTURY CHARTER SCH OF GARY,333 N PENNSYLVANIA SUITE 1000,INDIANAPOLIS,IN,46204
15,ADAMS CENTRAL COMMUNITY SCHOOLS,222 W WASHINGTON ST,MONROE,IN,46772
5265,ALEXANDRIA COM SCHOOL CORP,202 E WASHINGTON ST,ALEXANDRIA,IN,46001
5275,ANDERSON COMMUNITY SCHOOL CORP,1600 HILLCREST AVE,ANDERSON,IN,46011
9790,ANDERSON PREPARATORY ACADEMY,3205 W 25TH ST,ANDERSON,IN,46011
9715,ANDREW ACADEMY,4050 E 38TH ST,INDIANAPOLIS,IN,46218
9615,ANDREW J BROWN ACADEMY,3600 N GERMAN CHURCH RD,INDIANAPOLIS,IN,46235
6700,AREA 30 CAREER CENTER EDU INTER,1 N CALBERT WAY SUITE A,GREENCASTLE,IN,46135
5470,ARGOS COMMUNITY SCHOOLS,410 N FIRST ST,ARGOS,IN,46501
9685,ASPIRE CHARTER ACADEMY,4900 W 15TH AVE,GARY,IN,46406
2435,ATTICA CONSOLIDATED SCH CORP,205 E SYCAMORE ST,ATTICA,IN,47918
3315,AVON COMMUNITY SCHOOL CORP,7203 E US HWY 36,AVON,IN,46123
1315,BARR-REEVE COM SCHOOLS INC,BOX 97,MONTGOMERY,IN,47558
365,BARTHOLOMEW CON SCHOOL CORP,1200 CENTRAL AVE,COLUMBUS,IN,47201
6895,BATESVILLE COMMUNITY SCH CORP,PO BOX 121,BATESVILLE,IN,47006
2260,BAUGO COMMUNITY SCHOOLS,29125 CR 22 W,ELKHART,IN,46517
9830,BEACON ACADEMY,620 CUMBERLAND AVE,WEST LAFAYETTE,IN,47906
5380,BEECH GROVE CITY SCHOOLS,5334 HORNET AVE,BEECH GROVE,IN,46107
395,BENTON COMMUNITY SCHOOL CORP,PO BOX 512,FOWLER,IN,47944
515,BLACKFORD COUNTY SCHOOLS,0668 W 200 S,HARTFORD CITY,IN,47348
2920,BLOOMFIELD SCHOOL DISTRICT,PO BOX 266 500 W SOUTH ST,BLOOMFIELD,IN,47424
7375,BLUE RIVER CAREER PROGRAMS,801 ST JOSEPH ST,SHELBYVILLE,IN,46176
3405,BLUE RIVER VALLEY SCHOOLS,PO BOX 217,MOUNT SUMMIT,IN,47361
5480,BREMEN PUBLIC SCHOOLS,512 W GRANT ST,BREMEN,IN,46506
670,BROWN COUNTY SCHOOL CORPORATION,PO BOX 38,NASHVILLE,IN,47448
3305,BROWNSBURG COMMUNITY SCH CORP,444 E TILDEN DR,BROWNSBURG,IN,46112
3695,BROWNSTOWN CNT COM SCH CORP,608 W COMMERCE ST,BROWNSTOWN,IN,47220
9620,BURRIS LABORATORY SCHOOL,DEAN'S OFFICE-TEACHERS CLG BSU,MUNCIE,IN,47306
3455,C A BEARD MEMORIAL SCHOOL CORP,8139 W US 40,KNIGHTSTOWN,IN,46148
9725,CANAAN COMMUNITY ACADEMY,8775 N CANAAN MAIN ST POB 20,CANAAN,IN,47224
6340,CANNELTON CITY SCHOOLS,109 S THIRD ST,CANNELTON,IN,47520
9880,CAREER ACADEMY AT SOUTH BEND,3801 CRESCENT CIR,SOUTH BEND,IN,46628
3060,CARMEL CLAY SCHOOLS,5201 E MAIN ST,CARMEL,IN,46033
9755,CARPE DIEM - MERIDIAN CAMPUS,2220 N MERIDIAN ST,INDIANAPOLIS,IN,46208
750,CARROLL CONSOLIDATED SCH CORP,2 S 3RD ST,FLORA,IN,46929
2650,CASTON SCHOOL CORPORATION,BOX 8,FULTON,IN,46931
4205,CENTER GROVE COM SCH CORP,4800 W STONES CROSSING RD,GREENWOOD,IN,46143
8360,CENTERVILLE-ABINGTON COM SCHS,115 W SOUTH ST,CENTERVILLE,IN,47330
9580,CENTRAL IN EDUCATION SERVICE CTR,6321 LAPAS TRAIL,INDIANAPOLIS,IN,46268
4265,CENTRAL NINE CAREER CENTER,1999 US 31 S,GREENWOOD,IN,46143
6055,CENTRAL NOBLE COM SCHOOL CORP,200 E MAIN ST,ALBION,IN,46701
9645,CHALLENGE FOUNDATION ACADEMY,3980 MEADOWS DR,INDIANAPOLIS,IN,46205
9445,CHARLES A TINDLEY ACCELERATED SCHL,3960 MEADOWS DR,INDIANAPOLIS,IN,46205
9310,CHARTER SCHOOL OF THE DUNES,860 N LAKE ST,GARY,IN,46403
9380,CHRISTEL HOUSE ACADEMY,2717 S EAST ST,INDIANAPOLIS,IN,46225
9385,CHRISTEL HOUSE DORS (DROPOUT RCVY),2717 S EAST ST,INDIANAPOLIS,IN,46225
4145,CLARK-PLEASANT COM SCHOOL CORP,50 CENTER ST,WHITELAND,IN,46184
1000,CLARKSVILLE COM SCHOOL CORP,200 ETTEL LN,CLARKSVILLE,IN,47129
1125,CLAY COMMUNITY SCHOOLS,1013 S FOREST AVE,BRAZIL,IN,47834
1150,CLINTON CENTRAL SCHOOL CORP,BOX 118,MICHIGANTOWN,IN,46057
1160,CLINTON PRAIRIE SCHOOL CORP,4431 W OLD SR 28,FRANKFORT,IN,46041
6750,CLOVERDALE COMMUNITY SCHOOLS,310 E LOGAN,CLOVERDALE,IN,46120
9320,COMMUNITY MONTESSORI INC,4102 ST JOSEPH RD,NEW ALBANY,IN,47150
1170,COMMUNITY SCHOOLS OF FRANKFORT,2400 E WABASH AVE,FRANKFORT,IN,46041
2270,CONCORD COMMUNITY SCHOOLS,59040 MINUTEMAN WAY,ELKHART,IN,46517
8035,COVERED BRIDGE SPEC ED DIST,1320 WALNUT ST,TERRE HAUTE,IN,47807
2440,COVINGTON COMMUNITY SCH CORP,601 MARKET ST,COVINGTON,IN,47932
1900,COWAN COMMUNITY SCHOOL CORP,9401 S NOTTINGHAM,MUNCIE,IN,47302
1300,CRAWFORD CO COM SCHOOL CORP,5805 E ADMINISTRATION RD,MARENGO,IN,47140
5855,CRAWFORDSVILLE COM SCHOOLS,1000 FAIRVIEW AVE,CRAWFORDSVILLE,IN,47933
3710,CROTHERSVILLE COMMUNITY SCHOOLS,201 S PRESTON ST,CROTHERSVILLE,IN,47229
4660,CROWN POINT COMMUNITY SCH CORP,200 E NORTH ST,CROWN POINT,IN,46307
8825,CSUSA DONNAN,6245 N FEDERAL HWY 5TH FLOOR,FORT LAUDERDALE,IN,33308
8810,CSUSA HOWE,6245 N FEDERAL HWY 5TH FLOOR,FORT LAUDERDALE,IN,33308
8815,CSUSA MANUAL,6245 N FEDERAL HWY 5TH FLOOR,FORT LAUDERDALE,IN,33308
5455,CULVER COMMUNITY SCHOOLS CORP,PO BOX 231,CULVER,IN,46511
1940,DALEVILLE COMMUNITY SCHOOLS,14300 W 2ND ST,DALEVILLE,IN,47334
9920,DAMAR CHARTER ACADEMY,6067 DECATUR BLVD,INDIANAPOLIS,IN,46241
3325,DANVILLE COMMUNITY SCHOOL CORP,200 WARRIOR WAY,DANVILLE,IN,46122
1440,DAVIESS-MARTIN SPECIAL ED COOP,PO BOX 637,WASHINGTON,IN,47501
1655,DECATUR COUNTY COM SCHOOLS,1645 W SR 46,GREENSBURG,IN,47240
1835,DEKALB CO CTL UNITED SCH DIST,3326 CR 427,WATERLOO,IN,46793
1805,DEKALB CO EASTERN COM SCH DIST,300 E WASHINGTON ST,BUTLER,IN,46721
1875,DELAWARE COMMUNITY SCHOOL CORP,7821 SR 3 N,MUNCIE,IN,47303
755,DELPHI COMMUNITY SCHOOL CORP,501 ARMORY RD,DELPHI,IN,46923
9870,DISCOVERY CHARTER SCHOOL,800 CANONIE DR,PORTER,IN,46304
9795,DR ROBERT H FAULKNER ACADEMY,1111 W 2ND ST,MARION,IN,46952
6470,DUNELAND SCHOOL CORPORATION,601 W MORGAN AVE,CHESTERTON,IN,46304
255,EAST ALLEN COUNTY SCHOOLS,1240 SR 930 E,NEW HAVEN,IN,46774
9530,EAST CENTRAL EDUCATION SERVICE CTR,1601 INDIANA AVE,CONNERSVILLE,IN,47331
9595,EAST CHICAGO LIGHTHOUSE CHARTER,3916 PULASKI ST,EAST CHICAGO,IN,46312
9555,EAST CHICAGO URBAN ENTERPRISE ACAD,1402 E CHICAGO AVE,EAST CHICAGO,IN,46312
2725,EAST GIBSON SCHOOL CORPORATION,941 S FRANKLIN ST,OAKLAND CITY,IN,47660
6060,EAST NOBLE SCHOOL CORP,126 W RUSH ST,KENDALLVILLE,IN,46755
6510,EAST PORTER COUNTY SCHOOL CORP,502 E COLLEGE AVE - PO BOX 370,KOUTS,IN,46347
8215,EAST WASHINGTON SCHOOL CORP,1050 N EASTERN SCHOOL RD,PEKIN,IN,47165
2815,EASTBROOK COMMUNITY SCH CORP,CR 560 S 900 E,MARION,IN,46953
2940,EASTERN GREENE SCHOOLS,1471 N SR 43,BLOOMFIELD,IN,47424
3145,EASTERN HANCOCK CO COM SCH CORP,10370 E 250 N,CHARLOTTESVILLE,IN,46117
3480,EASTERN HOWARD SCHOOL CORP,221 W MAIN SUITE ONE,GREENTOWN,IN,46936
6620,EASTERN PULASKI COM SCH CORP,711 SCHOOL DR,WINAMAC,IN,46996
4215,EDINBURGH COMMUNITY SCH CORP,202 S KEELEY ST,EDINBURGH,IN,46124
8820,EDISON LEARNING ROOSEVELT,730 W 25TH AVE,GARY,IN,46407
8830,EDPOWER ARLINGTON,3960 MEADOWS DR,INDIANAPOLIS,IN,46205
2305,ELKHART COMMUNITY SCHOOLS,2720 CALIFORNIA RD,ELKHART,IN,46514
5280,ELWOOD COMMUNITY SCHOOL CORP,1306 N ANDERSON ST,ELWOOD,IN,46036
5910,EMINENCE COMMUNITY SCHOOL CORP,PO BOX 135,EMINENCE,IN,46125
,Enlace Academy,5420 N College Ave Ste 202,Indianapolis,IN,46220
7995,EVANSVILLE VANDERBURGH SCH CORP,951 WALNUT ST,EVANSVILLE,IN,47713
9910,EXCEL CENTER FOR ADULT LEARNERS,1635 W MICHIGAN ST,INDIANAPOLIS,IN,46222
2155,FAIRFIELD COMMUNITY SCHOOLS,67240 CR 31,GOSHEN,IN,46528
9370,FALL CREEK ACADEMY,333 N PENNSYLVANIA SUITE 1000,INDIANAPOLIS,IN,46204
2395,FAYETTE COUNTY SCHOOL CORP,1401 SPARTAN DR,CONNERSVILLE,IN,47331
9390,FLANNER HOUSE ELEMENTARY SCHOOL,2424 DR MARTIN LUTHER KING JR,INDIANAPOLIS,IN,46208
370,FLAT ROCK-HAWCREEK SCHOOL CORP,9423 N SR 9,HOPE,IN,47246
235,FORT WAYNE COMMUNITY SCHOOLS,1200 S CLINTON ST,FORT WAYNE,IN,46802
9480,FOUNTAIN SQUARE ACADEMY,1615 S BARTH AVE,INDIANAPOLIS,IN,46203
4225,FRANKLIN COMMUNITY SCHOOL CORP,998 GRIZZLY CUB DR,FRANKLIN,IN,46131
2475,FRANKLIN COUNTY COM SCH CORP,225 E 10TH ST,BROOKVILLE,IN,47012
5310,FRANKLIN TOWNSHIP COM SCH CORP,6141 S FRANKLIN RD,INDIANAPOLIS,IN,46259
5245,FRANKTON-LAPEL COMMUNITY SCHS,7916 W 300 N,ANDERSON,IN,46011
7605,FREMONT COMMUNITY SCHOOLS,PO BOX 665,FREMONT,IN,46737
8525,FRONTIER SCHOOL CORPORATION,PO BOX 809,CHALMERS,IN,47929
1820,GARRETT-KEYSER-BUTLER COM,801 E HOUSTON ST,GARRETT,IN,46738
4690,GARY COMMUNITY SCHOOL CORP,620 E 10TH PL,GARY,IN,46402
9535,GARY LIGHTHOUSE CHARTER SCHOOL,3201 PIERCE ST,GARY,IN,46408
9885,GARY MIDDLE COLLEGE,333 N PENNSYLVANIA ST STE 1000,INDIANAPOLIS,IN,46204
9665,GEIST MONTESSORI ACADEMY,13942 E 96TH ST - SUITE 120,MCCORDSVILLE,IN,46055
2315,GOSHEN COMMUNITY SCHOOLS,613 E PURL ST,GOSHEN,IN,46526
1010,GREATER CLARK COUNTY SCHOOLS,2112 UTICA-SELLERSBURG RD,JEFFERSONVILLE,IN,47130
2120,GREATER JASPER CON SCHS,1520 ST CHARLES ST SUITE 1,JASPER,IN,47546
6845,GREATER RANDOLPH INTERLOCAL COOP,325 S OAK ST - SUITE L103,WINCHESTER,IN,47394
6755,GREENCASTLE COMMUNITY SCH CORP,PO BOX 480,GREENCASTLE,IN,46135
2990,GREENE-SULLIVAN SP ED COOP,77 'A' ST NE,LINTON,IN,47441
3125,GREENFIELD-CENTRAL COM SCHOOLS,110 W NORTH ST,GREENFIELD,IN,46140
1730,GREENSBURG COMMUNITY SCHOOLS,1312 W WESTRIDGE PKY,GREENSBURG,IN,47240
4245,GREENWOOD COMMUNITY SCH CORP,605 W SMITH VALLEY RD,GREENWOOD,IN,46142
4700,GRIFFITH PUBLIC SCHOOLS,PO BOX 749,GRIFFITH,IN,46319
7610,HAMILTON COMMUNITY SCHOOLS,903 S WAYNE ST,HAMILTON,IN,46742
3025,HAMILTON HEIGHTS SCHOOL CORP,PO BOX 469,ARCADIA,IN,46030
3005,HAMILTON SOUTHEASTERN SCHOOLS,13485 CUMBERLAND RD,FISHERS,IN,46038
9705,HAMMOND ACADEMY OF SCIENCE & TECH,33 MUENICH CT,HAMMOND,IN,46320
3130,HANCOCK MADISON SHELBY ED SERVICES,1834 FIELDS BLVD,GREENFIELD,IN,46140
4580,HANOVER COMMUNITY SCHOOL CORP,PO BOX 645,CEDAR LAKE,IN,46303
8065,HEARTLAND CAREER CENTER,79 S 200 W,WABASH,IN,46992
9650,HERRON CHARTER,110 E 16TH ST,INDIANAPOLIS,IN,46202
9865,HOOSIER ACAD VIRTUAL CHARTER,2855 N FRANKLIN RD,INDIANAPOLIS,IN,46219
9805,HOOSIER ACADEMY - INDIANAPOLIS,5640 CAITO DR,INDIANAPOLIS,IN,46226
9655,HOPE ACADEMY,8102 CLEARVISTA PKY,INDIANAPOLIS,IN,46256
3625,HUNTINGTON CO COM SCH CORP,2485 WATERWORKS RD,HUNTINGTON,IN,46750
9850,IMAGINE LIFE SCIENCES ACAD - WEST,4950 W 34TH ST,INDIANAPOLIS,IN,46224
9625,IN ACAD FOR SCI MATH HUMANITIES,DEAN'S OFFICE-TEACHERS CLG BSU,MUNCIE,IN,47306
9905,IN CONNECTIONS ACAD VIRTUAL PILOT,6640 INTECH BLVD - SUITE 250,INDIANAPOLIS,IN,46278
9100,IN DEPARTMENT OF CORRECTION,302 W WASHINGTON ST RM E334,INDIANAPOLIS,IN,46204
,IN Math & Science Academy - South,2701 Bethel Ave,Indianapolis,IN,46203
9605,IN SCH FOR THE BLIND & VIS IMPRD,7725 N COLLEGE AVE,INDIANAPOLIS,IN,46240
9105,IN STATE DEPARTMENT OF HEALTH,2 N MERIDIAN ST,INDIANAPOLIS,IN,46204
9765,INDIANA CYBER CHARTER SCH INC,746 US HWY 30,SCHERERVILLE,IN,46375
9785,INDIANA MATH AND SCIENCE ACADEMY,4575 W 38TH ST,INDIANAPOLIS,IN,46254
9895,INDIANA MATH SCIENCE ACADEMY NORTH,7435 N KEYSTONE AVE,INDIANAPOLIS,IN,46240
9610,INDIANA SCHOOL FOR THE DEAF,1200 E 42ND ST,INDIANAPOLIS,IN,46205
9890,INDIANA VIRTUAL SCHOOL,2206 E 96TH ST,INDIANAPOLIS,IN,46240
9670,INDIANAPOLIS METROPOLITAN HIGH SCH,1635 W MICHIGAN ST,INDIANAPOLIS,IN,46222
5385,INDIANAPOLIS PUBLIC SCHOOLS,120 E WALNUT ST,INDIANAPOLIS,IN,46204
9575,INDPLS LIGHTHOUSE CHARTER SCHOOL,1780 SLOAN AVE,INDIANAPOLIS,IN,46203
9735,INSPIRE ACADEMY - A SCH OF INQUIRY,PO BOX 1823,MUNCIE,IN,47305
9860,INTERNATIONAL SCHOOL OF COLUMBUS,3136 N NATIONAL RD - SUITE E,COLUMBUS,IN,47201
9330,IRVINGTON COMMUNITY SCHOOL,6705 E JULIAN AVE,INDIANAPOLIS,IN,46219
6900,JAC-CEN-DEL COMMUNITY SCH CORP,723 N BUCKEYE ST,OSGOOD,IN,47037
3945,JAY SCHOOL CORP,PO BOX 1239,PORTLAND,IN,47371
4015,JENNINGS COUNTY SCHOOLS,34 MAIN ST,NORTH VERNON,IN,47265
7150,JOHN GLENN SCHOOL CORPORATION,101 JOHN GLENN DR,WALKERTON,IN,46574
5450,JOINT ED SERVICES IN SPEC ED,PO BOX 418,PLYMOUTH,IN,46563
9495,JOSHUA ACADEMY,1230 E ILLINOIS ST,EVANSVILLE,IN,47711
3785,KANKAKEE VALLEY SCHOOL CORP,PO BOX 278,WHEATFIELD,IN,46392
9400,KIPP INDPLS COLLEGE PREPARATORY,3202 E 42ND ST,INDIANAPOLIS,IN,46205
7525,KNOX COMMUNITY SCHOOL CORP,2 REDSKIN TRL,KNOX,IN,46534
3500,KOKOMO-CENTER TWP CON SCH CORP,1500 S WASHINGTON PO BOX 2188,KOKOMO,IN,46904
7855,LAFAYETTE SCHOOL CORPORATION,2300 CASON ST,LAFAYETTE,IN,47904
4615,LAKE CENTRAL SCHOOL CORP,8260 WICKER AVE,SAINT JOHN,IN,46373
4650,LAKE RIDGE SCHOOLS,6111 W RIDGE RD,GARY,IN,46408
4680,LAKE STATION COMMUNITY SCHOOLS,2500 PIKE ST,LAKE STATION,IN,46405
4535,LAKELAND SCHOOL CORPORATION,200 S CHERRY ST,LAGRANGE,IN,46761
3160,LANESVILLE COMMUNITY SCHOOL CORP,2725 CRESTVIEW AVE NE,LANESVILLE,IN,47136
4945,LAPORTE COMMUNITY SCHOOL CORP,1921 'A' ST,LAPORTE,IN,46350
9346,LAPORTE COUNTY SUPERINTENDENT,CO GOV CMPLX-4TH FLR-809 STATE,LAPORTE,IN,46350
1620,LAWRENCEBURG COM SCHOOL CORP,300 TIGER BLVD,LAWRENCEBURG,IN,47025
665,LEBANON COMMUNITY SCHOOL CORP,1810 N GRANT ST,LEBANON,IN,46052
1895,LIBERTY-PERRY COM SCHOOL CORP,BOX 337,SELMA,IN,47383
2950,LINTON-STOCKTON SCHOOL CORP,801 NE 1ST ST,LINTON,IN,47441
875,LOGANSPORT COMMUNITY SCH CORP,2829 GEORGE ST,LOGANSPORT,IN,46947
5525,LOOGOOTEE COMMUNITY SCH CORP,PO BOX 282,LOOGOOTEE,IN,47553
6150,LOST RIVER CAREER COOPERATIVE,600 ELM ST - SUITE ONE,PAOLI,IN,47454
8445,M S D BLUFFTON-HARRISON,805 E HARRISON ST,BLUFFTON,IN,46714
6460,M S D BOONE TOWNSHIP,307 S MAIN ST,HEBRON,IN,46341
5300,M S D DECATUR TOWNSHIP,5275 KENTUCKY AVE,INDIANAPOLIS,IN,46221
5330,M S D LAWRENCE TOWNSHIP,6501 SUNNYSIDE RD,INDIANAPOLIS,IN,46236
5925,M S D MARTINSVILLE SCHOOLS,PO BOX 1416,MARTINSVILLE,IN,46151
6590,M S D MOUNT VERNON,1000 W 4TH ST,MOUNT VERNON,IN,47620
6600,M S D NORTH POSEY CO SCHOOLS,101 N CHURCH ST,POSEYVILLE,IN,47633
4860,M S D OF NEW DURHAM TOWNSHIP,207 E VALPARAISO ST,WESTVILLE,IN,46391
5340,M S D PERRY TOWNSHIP,6548 ORINOCO AVE,INDIANAPOLIS,IN,46227
5350,M S D PIKE TOWNSHIP,6901 ZIONSVILLE RD,INDIANAPOLIS,IN,46268
2960,M S D SHAKAMAK SCHOOLS,9233 SHAKAMAK SCHOOL RD,JASONVILLE,IN,47438
125,M S D SOUTHWEST ALLEN COUNTY SCHLS,4824 HOMESTEAD RD,FORT WAYNE,IN,46814
7615,M S D STEUBEN COUNTY,400 S MARTHA ST,ANGOLA,IN,46703
8050,M S D WABASH COUNTY SCHOOLS,204 N 300 W,WABASH,IN,46992
8115,M S D WARREN COUNTY,101 N MONROE ST,WILLIAMSPORT,IN,47993
5360,M S D WARREN TOWNSHIP,975 N POST RD,INDIANAPOLIS,IN,46219
5370,M S D WASHINGTON TOWNSHIP,8550 WOODFIELD CROSSING BLVD,INDIANAPOLIS,IN,46240
5375,M S D WAYNE TOWNSHIP,1220 S HIGH SCH RD,INDIANAPOLIS,IN,46241
5615,MACONAQUAH SCHOOL CORP,7932 S STRAWTOWN PK,BUNKER HILL,IN,46914
4005,MADISON AREA ED SPEC SRV UNIT,702 ELM ST,MADISON,IN,47250
3995,MADISON CONSOLIDATED SCHOOLS,2421 WILSON AVE,MADISON,IN,47250
2825,MADISON-GRANT UNITED SCH CORP,11580 S/E 00 W,FAIRMOUNT,IN,46928
8045,MANCHESTER COMMUNITY SCHOOLS,404 W NINTH ST,N MANCHESTER,IN,46962
2865,MARION COMMUNITY SCHOOLS,1240 S ADAMS ST,MARION,IN,46952
3640,MEDORA COMMUNITY SCHOOL CORP,PO BOX 369,MEDORA,IN,47260
4600,MERRILLVILLE COMMUNITY SCHOOL,6701 DELAWARE ST,MERRILLVILLE,IN,46410
4925,MICHIGAN CITY AREA SCHOOLS,408 S CARROLL AVE,MICHIGAN CITY,IN,46360
2275,MIDDLEBURY COMMUNITY SCHOOLS,56853 NORTHRIDGE DR,MIDDLEBURY,IN,46540
6910,MILAN COMMUNITY SCHOOLS,412 E CARR ST,MILAN,IN,47031
3335,MILL CREEK COMMUNITY SCH CORP,6631 S CR 200 W,CLAYTON,IN,46118
2855,MISSISSINEWA COMMUNITY SCHOOL CORP,424 E S 'A' ST,GAS CITY,IN,46933
5085,MITCHELL COMMUNITY SCHOOLS,441 N 8TH ST,MITCHELL,IN,47446
6820,MONROE CENTRAL SCHOOL CORP,1918 N CR 1000 W,PARKER CITY,IN,47368
5740,MONROE COUNTY COM SCH CORP,315 E NORTH DR,BLOOMINGTON,IN,47401
5900,MONROE-GREGG SCHOOL DISTRICT,135 S CHESTNUT ST,MONROVIA,IN,46157
9590,MONUMENT LIGHTHOUSE CHARTER SCHOOL,4002 N FRANKLIN RD,INDIANAPOLIS,IN,46226
5930,MOORESVILLE CON SCHOOL CORP,11 W CARLISLE ST,MOORESVILLE,IN,46158
3135,MT VERNON COMMUNITY SCH CORP,1776 W SR 234,FORTVILLE,IN,46040
1970,MUNCIE COMMUNITY SCHOOLS,2501 N OAKWOOD AVE,MUNCIE,IN,47304
9730,NEIGHBORS' NEW VISTAS HIGH SCHOOL,5391 CENTRAL AVE,PORTAGE,IN,46368
8305,NETTLE CREEK SCHOOL CORP,297 E NORTHMARKET ST,HAGERSTOWN,IN,47346
2400,NEW ALBANY-FLOYD CO CON SCH,2813 GRANT LINE PO BOX 1087,NEW ALBANY,IN,47150
3445,NEW CASTLE COMMUNITY SCH CORP,322 ELLIOTT AVE,NEW CASTLE,IN,47362
9340,NEW COMMUNITY SCHOOL,710 NORTH ST,LAFAYETTE,IN,47901
4805,NEW PRAIRIE UNITED SCHOOL CORP,5327 N COUGAR RD,NEW CARLISLE,IN,46552
,Nexus Academy of Indianapolis,6101 N Keystone Ave Ste 302,Indianapolis,IN,46220
4255,NINEVEH-HENSLEY-JACKSON UNITED,802 S INDIAN CREEK DR,TRAFALGAR,IN,46181
3070,NOBLESVILLE SCHOOLS,1775 FIELD DR,NOBLESVILLE,IN,46060
25,NORTH ADAMS COMMUNITY SCHOOLS,625 STADIUM DR,DECATUR,IN,46733
6375,NORTH CENTRAL PARKE COMM SCHL CORP,602 HOWARD AVE,ROCKVILLE,IN,47872
1375,NORTH DAVIESS COM SCHOOLS,5494 E SR 58,ELNORA,IN,47529
2735,NORTH GIBSON SCHOOL CORP,1108 N EMBREE ST,PRINCETON,IN,47670
3180,NORTH HARRISON COM SCHOOL CORP,1260 HWY 64 NW,RAMSEY,IN,47166
7515,NORTH JUDSON-SAN PIERRE SCH CORP,801 CAMPBELL DR,NORTH JUDSON,IN,46366
4315,NORTH KNOX SCHOOL CORP,11110 N SR 159,BICKNELL,IN,47512
5075,NORTH LAWRENCE COM SCHOOLS,PO BOX 729,BEDFORD,IN,47421
5620,NORTH MIAMI COMMUNITY SCHOOLS,PO BOX 218,DENVER,IN,46926
5835,NORTH MONTGOMERY COM SCH CORP,480 W 580 N,CRAWFORDSVILLE,IN,47933
5945,NORTH NEWTON SCHOOL CORP,PO BOX 8,MOROCCO,IN,47963
6715,NORTH PUTNAM COMMUNITY SCHOOLS,PO BOX 169-300 N WASHINGTON,BAINBRIDGE,IN,46105
7385,NORTH SPENCER COUNTY SCH CORP,PO BOX 316,LINCOLN CITY,IN,47552
8010,NORTH VERMILLION COM SCH CORP,5551 N FALCON DR,CAYUGA,IN,47928
3295,NORTH WEST HENDRICKS SCHOOLS,BOX 70,LIZTON,IN,46149
8515,NORTH WHITE SCHOOL CORP,121 W SR 16,MONON,IN,47959
2040,NORTHEAST DUBOIS CO SCH CORP,5379 E MAIN ST BOX 158,DUBOIS,IN,47527
7645,NORTHEAST SCHOOL CORP,PO BOX 493,HYMERA,IN,47855
8375,NORTHEASTERN WAYNE SCHOOLS,PO BOX 406,FOUNTAIN CITY,IN,47341
9510,NORTHERN IN EDUCATION CENTER,56535 MAGNETIC DR,MISHAWAKA,IN,46545
8435,NORTHERN WELLS COM SCHOOLS,312 N JEFFERSON ST,OSSIAN,IN,46777
225,NORTHWEST ALLEN COUNTY SCHOOLS,13119 COLDWATER RD,FORT WAYNE,IN,46845
9570,NORTHWEST IN EDUCATION CENTER,2939 41ST ST,HIGHLAND,IN,46322
4570,NORTHWEST INDIANA SPEC ED COOP,2150 W 97TH PL,CROWN POINT,IN,46307
7350,NORTHWESTERN CON SCHOOL CORP,4920 W 600 N,FAIRLAND,IN,46126
3470,NORTHWESTERN SCHOOL CORP,3075 N WASHINGTON ST,KOKOMO,IN,46901
5625,OAK HILL UNITED SCHOOL CORP,1474 N 800 W 27 PO BOX 550,CONVERSE,IN,46919
6720,OLD NATIONAL TRAIL SPEC SERV COOP,1 N CALBERT WAY,GREENCASTLE,IN,46135
9640,OPTIONS CHARTER SCH - NOBLESVILLE,9945 CUMBERLAND POINTE BLVD,NOBLESVILLE,IN,46060
9325,OPTIONS CHARTER SCHOOL - CARMEL,530 W CARMEL DR,CARMEL,IN,46032
7495,OREGON-DAVIS SCHOOL CORP,5998 N 750 E,HAMLET,IN,46532
6145,ORLEANS COMMUNITY SCHOOLS,173 W MARLEY ST,ORLEANS,IN,47452
9720,PADUA ACADEMY,349 N WARMAN AVE,INDIANAPOLIS,IN,46222
6155,PAOLI COMMUNITY SCHOOL CORP,501 ELM ST - OFC SUPT,PAOLI,IN,47454
9680,PARAMOUNT SCHOOL OF EXCELLENCE INC,3020 NOWLAND AVE,INDIANAPOLIS,IN,46201
8025,PARKE-VERMILLION ED & TRNG INTER,PO BOX 95,HILLSDALE,IN,47854
7175,PENN-HARRIS-MADISON SCH CORP,55900 BITTERSWEET RD,MISHAWAKA,IN,46545
6325,PERRY CENTRAL COM SCHOOLS CORP,18677 OLD SR 37,LEOPOLD,IN,47551
5635,PERU COMMUNITY SCHOOLS,35 W 3RD ST,PERU,IN,46970
6445,PIKE COUNTY SCHOOL CORP,907 WALNUT ST,PETERSBURG,IN,47567
775,PIONEER REGIONAL SCHOOL CORP,PO BOX 577,ROYAL CENTER,IN,46978
3330,PLAINFIELD COMMUNITY SCH CORP,985 S LONGFELLOW DR,PLAINFIELD,IN,46168
5485,PLYMOUTH COMMUNITY SCHOOL CORP,611 BERKLEY ST,PLYMOUTH,IN,46563
6550,PORTAGE TOWNSHIP SCHOOLS,6240 US HWY 6,PORTAGE,IN,46368
6455,PORTER COUNTY EDUCATION SERVICES,750 RANSOM RD,VALPARAISO,IN,46385
6520,PORTER TOWNSHIP SCHOOL CORP,248 S 500 W,VALPARAISO,IN,46385
4515,PRAIRIE HEIGHTS COM SCH CORP,0305 S 1150 E,LAGRANGE,IN,46761
6825,RANDOLPH CENTRAL SCHOOL CORP,103 N EAST ST,WINCHESTER,IN,47394
6835,RANDOLPH EASTERN SCHOOL CORP,907 N PLUM ST,UNION CITY,IN,47390
6805,RANDOLPH SOUTHERN SCHOOL CORP,1 REBEL DR,LYNN,IN,47355
9560,REGION 8 EDUCATION SERVICE CENTER,251 W 850 N,DECATUR,IN,46733
9690,RENAISSANCE ACADEMY CHARTER SCHOOL,4093 W US 20,LAPORTE,IN,46350
3815,RENSSELAER CENTRAL SCHOOL CORP,605 GROVE ST,RENSSELAER,IN,47978
5705,RICHLAND-BEAN BLOSSOM C S C,600 S EDGEWOOD DR,ELLETTSVILLE,IN,47429
8385,RICHMOND COMMUNITY SCHOOLS,300 HUB ETCHISON PKY,RICHMOND,IN,47374
1575,RIPLEY-OHIO-DEARBORN SP ED COOP,925 N MERIDIAN ST STE 100,SUNMAN,IN,47041
6080,RISING SUN-OHIO CO COM,110 S HENRIETTA ST,RISING SUN,IN,47040
4590,RIVER FOREST COMMUNITY SCH CORP,3250 MICHIGAN ST,HOBART,IN,46342
2645,ROCHESTER COMMUNITY SCH CORP,690 ZEBRA LN BOX 108,ROCHESTER,IN,46975
9875,ROCK CREEK COMMUNITY ACADEMY,11515 HWY 31,SELLERSBURG,IN,47172
1180,ROSSVILLE CON SCHOOL DISTRICT,PO BOX 11,ROSSVILLE,IN,46065
9465,RURAL COMMUNITY SCHOOLS INC,PO BOX 85,GRAYSVILLE,IN,47852
6995,RUSH COUNTY SCHOOLS,330 W 8TH ST,RUSHVILLE,IN,46173
8205,SALEM COMMUNITY SCHOOLS,500 N HARRISON ST,SALEM,IN,47167
4670,SCHOOL CITY OF EAST CHICAGO,210 E COLUMBUS DR,EAST CHICAGO,IN,46312
4710,SCHOOL CITY OF HAMMOND,41 WILLIAMS ST,HAMMOND,IN,46320
4730,SCHOOL CITY OF HOBART,32 E 7TH ST,HOBART,IN,46342
7200,SCHOOL CITY OF MISHAWAKA,1402 S MAIN ST,MISHAWAKA,IN,46544
4720,SCHOOL TOWN OF HIGHLAND,9145 KENNEDY AVE,HIGHLAND,IN,46322
4740,SCHOOL TOWN OF MUNSTER,8616 COLUMBIA AVE,MUNSTER,IN,46321
5400,SCHOOL TOWN OF SPEEDWAY,5335 W 25TH ST,SPEEDWAY,IN,46224
7230,SCOTT COUNTY SCHOOL DISTRICT 1,PO BOX 9,AUSTIN,IN,47102
7255,SCOTT COUNTY SCHOOL DISTRICT 2,375 E MCCLAIN AVE,SCOTTSBURG,IN,47170
9485,SE NEIGHBORHOOD SCH OF EXCELLENCE,1601 S BARTH AVE,INDIANAPOLIS,IN,46203
3675,SEYMOUR COMMUNITY SCHOOLS,1638 S WALNUT ST,SEYMOUR,IN,47274
7285,SHELBY EASTERN SCHOOLS,2451 N 600 E,SHELBYVILLE,IN,46176
7365,SHELBYVILLE CENTRAL SCHOOLS,803 ST JOSEPH ST,SHELBYVILLE,IN,46176
3435,SHENANDOAH SCHOOL CORPORATION,5100 N RAIDER RD,MIDDLETOWN,IN,47356
3055,SHERIDAN COMMUNITY SCHOOLS,24795 N HINESLEY RD,SHERIDAN,IN,46069
5520,SHOALS COMMUNITY SCHOOL CORP,11741 IRONTON RD,SHOALS,IN,47581
9315,SIGNATURE SCHOOL INC,610 MAIN ST,EVANSVILLE,IN,47708
9760,SMITH ACADEMY FOR EXCELLENCE,6806 EMBERS CT,FORT WAYNE,IN,46815
8625,SMITH-GREEN COMMUNITY SCHOOLS,222 W TULLEY ST,CHURUBUSCO,IN,46723
35,SOUTH ADAMS SCHOOLS,1075 STARFIRE WAY,BERNE,IN,46711
7205,SOUTH BEND COMMUNITY SCH CORP,215 S ST JOSEPH ST,SOUTH BEND,IN,46601
8225,SOUTH CENTRAL AREA SPECIAL ED,600 ELM ST SUITE 2,PAOLI,IN,47454
4940,SOUTH CENTRAL COM SCHOOL CORP,9808 S 600 W,UNION MILLS,IN,46382
1600,SOUTH DEARBORN COM SCHOOL CORP,6109 SQUIRE PL,AURORA,IN,47001
2765,SOUTH GIBSON SCHOOL CORP,1029 W 650 S,FORT BRANCH,IN,47648
3190,SOUTH HARRISON COM SCHOOLS,315 S HARRISON DR,CORYDON,IN,47112
3415,SOUTH HENRY SCHOOL CORP,6972 S SR 103,STRAUGHN,IN,47387
4325,SOUTH KNOX SCHOOL CORP,6116 E SR 61,VINCENNES,IN,47591
5255,SOUTH MADISON COM SCH CORP,203 S HERITAGE WAY,PENDLETON,IN,46064
5845,SOUTH MONTGOMERY COM SCH CORP,PO BOX 8,NEW MARKET,IN,47965
5995,SOUTH NEWTON SCHOOL CORP,13232 S 50 E,KENTLAND,IN,47951
6705,SOUTH PUTNAM COMMUNITY SCHOOLS,3999 S US HWY 231,GREENCASTLE,IN,46135
6865,SOUTH RIPLEY COM SCH CORP,PO BOX 690,VERSAILLES,IN,47042
7445,SOUTH SPENCER COUNTY SCH CORP,PO BOX 26,ROCKPORT,IN,47635
8020,SOUTH VERMILLION COM SCH CORP,PO BOX 387,CLINTON,IN,47842
2100,SOUTHEAST DUBOIS CO SCH CORP,432 E 15TH ST,FERDINAND,IN,47532
2455,SOUTHEAST FOUNTAIN SCHOOL CORP,744 E US HWY 136,VEEDERSBURG,IN,47987
6915,SOUTHEASTERN CAREER CENTER,901 W US 50,VERSAILLES,IN,47042
815,SOUTHEASTERN SCHOOL CORP,6422 E SR 218,WALTON,IN,46994
3115,SOUTHERN HANCOCK CO COM SCH CORP,PO BOX 508,NEW PALESTINE,IN,46163
9520,SOUTHERN IN EDUCATION CENTER,1102 TREE LANE DR,JASPER,IN,47546
8425,SOUTHERN WELLS COM SCHOOLS,9120 S 300 W,PONETO,IN,46781
5390,SOUTHSIDE SP SRVS OF MARION CO,5391 S SHELBY ST,INDIANAPOLIS,IN,46227
2110,SOUTHWEST DUBOIS CO SCH CORP,113 N JACKSON ST,HUNTINGBURG,IN,47542
6260,SOUTHWEST PARKE COM SCH CORP,4851 S COXVILLE RD,MONTEZUMA,IN,47862
7715,SOUTHWEST SCHOOL CORP,110 N MAIN ST,SULLIVAN,IN,47882
7360,SOUTHWESTERN CON SCH SHELBY CO,3406 W 600 S,SHELBYVILLE,IN,46176
4000,SOUTHWESTERN-JEFFERSON CO CON,239 S MAIN CROSS ST,HANOVER,IN,47243
4135,SPECIAL SERVICES - JOHNSON CO,500 EARLYWOOD DR,FRANKLIN,IN,46131
6195,SPENCER-OWEN COMMUNITY SCHOOLS,205 E HILLSIDE,SPENCER,IN,47460
6160,SPRINGS VALLEY COM SCHOOL CORP,498 S LARRY BIRD BLVD,FRENCH LICK,IN,47432
1560,SUNMAN-DEARBORN COM SCH CORP,1 TROJAN PLACE STE B,ST LEON,IN,47012
7775,SWITZERLAND COUNTY SCHOOL CORP,1040 W MAIN ST,VEVAY,IN,47043
3460,TAYLOR COMMUNITY SCHOOL CORP,3750 E CR 300 S,KOKOMO,IN,46902
6350,TELL CITY-TROY TWP SCHOOL CORP,837 17TH ST,TELL CITY,IN,47586
9835,THE BLOOMINGTON PROJECT SCHOOL,349 S WALNUT ST,BLOOMINGTON,IN,47401
9750,THE EXCEL CENTER - ANDERSON,630 NICHOL AVE,ANDERSON,IN,46016
,The Excel Center - Kokomo,101 W Superior St,Kokomo,IN,46901
,The Excel Center - Lafayette,615 N 18th St 2nd Floor,Lafayette,IN,47904
,The Excel Center - Richmond,1635 W Michigan St,Indianapolis,IN,46222
,The Excel Center-Lafayette Square,1635 W Michigan Dr,Indianapolis,IN,46222
9925,THE GEORGE & VERONICA PHALEN ACAD,1001 MARINA DR #410,QUINCY,IN,2171
9460,THEA BOWMAN LEADERSHIP ACADEMY,975 W 6TH AVE,GARY,IN,46402
9740,THURGOOD MARSHALL LEADERSHIP ACAD,2310 WEISSER PARK,FORT WAYNE,IN,46806
9350,TIMOTHY L JOHNSON ACADEMY,4615 WERLING DR,FORT WAYNE,IN,46806
,Tindley Collegiate Academy,4020 Meadows Parkway,Indianapolis,IN,46205
9745,TINDLEY PREPARATORY ACADEMY,3960 MEADOWS DR,INDIANAPOLIS,IN,46205
,Tindley Renaissance Academy,4010 Sherman Dr,Indianapolis,IN,46205
7865,TIPPECANOE SCHOOL CORP,21 ELSTON RD,LAFAYETTE,IN,47909
4445,TIPPECANOE VALLEY SCHOOL CORP,8343 S SR 19,AKRON,IN,46910
7945,TIPTON COMMUNITY SCHOOL CORP,221 N MAIN ST SUITE A,TIPTON,IN,46072
7935,TRI-CENTRAL COMMUNITY SCHOOLS,4774 N 200 W,SHARPSVILLE,IN,46068
8535,TRI-COUNTY SCHOOL CORP,105 N 2ND ST,WOLCOTT,IN,47995
4645,TRI-CREEK SCHOOL CORPORATION,195 W OAKLEY AVE,LOWELL,IN,46356
4915,TRI-TOWNSHIP CONS SCHOOL CORP,PO BOX 249,WANATAH,IN,46390
5495,TRITON SCHOOL CORPORATION,100 TRITON DR,BOURBON,IN,46504
8565,TWIN LAKES SCHOOL CORP,565 S MAIN ST,MONTICELLO,IN,47960
1425,TWIN RIVERS CAREER & TECH ED AREA,PO BOX 1266,VINCENNES,IN,47591
7950,UNION CO/CLG CORNER JOINT SCH DIST,107 S LAYMAN ST,LIBERTY,IN,47353
6795,UNION SCHOOL CORPORATION,8707 W US HWY 36 PO BOX 148,MODOC,IN,47358
6530,UNION TOWNSHIP SCHOOL CORP,599 W 300 N SUITE A,VALPARAISO,IN,46385
7215,UNION-NORTH UNITED SCHOOL CORP,22601 TYLER RD,LAKEVILLE,IN,46536
6560,VALPARAISO COMMUNITY SCHOOLS,3801 N CAMPBELL ST,VALPARAISO,IN,46385
9360,VERITAS ACADEMY,530 E IRELAND RD BLDG B,SOUTH BEND,IN,46614
8030,VIGO COUNTY SCHOOL CORP,PO BOX 3703,TERRE HAUTE,IN,47803
4335,VINCENNES COMMUNITY SCH CORP,1712 S QUAIL RUN RD,VINCENNES,IN,47591
2285,WA-NEE COMMUNITY SCHOOLS,1300 N MAIN ST,NAPPANEE,IN,46550
8060,WABASH CITY SCHOOLS,1101 COLERAIN ST  PO BOX 744,WABASH,IN,46992
9550,WABASH VALLEY EDUCATION CENTER,3061 BENTON ST,WEST LAFAYETTE,IN,47906
8130,WARRICK COUNTY SCHOOL CORP,PO BOX 809,BOONVILLE,IN,47601
4415,WARSAW COMMUNITY SCHOOLS,1 ADMINISTRATION DR,WARSAW,IN,46580
1405,WASHINGTON COM SCHOOLS,301 E SOUTH ST,WASHINGTON,IN,47501
4345,WAWASEE COMMUNITY SCHOOL CORP,1 WARRIOR PATH - BLDG 2,SYRACUSE,IN,46567
1885,WES-DEL COMMUNITY SCHOOLS,10290 N CR 600 W,GASTON,IN,47342
9500,WEST CENTRAL EDUCATION SERVICE CTR,PO BOX 21,GREENCASTLE,IN,46135
6630,WEST CENTRAL SCHOOL CORP,PO BOX 578,FRANCESVILLE,IN,47946
940,WEST CLARK COMMUNITY SCHOOLS,601 RENZ AVE,SELLERSBURG,IN,47172
7875,WEST LAFAYETTE COM SCHOOL CORP,1130 N SALISBURY,WEST LAFAYETTE,IN,47906
6065,WEST NOBLE SCHOOL CORPORATION,5050 N US 33,LIGONIER,IN,46767
8220,WEST WASHINGTON SCHOOL CORP,9699 W MT TABOR RD,CAMPBELLSBURG,IN,47108
615,WESTERN BOONE CO COM SCH DIST,1201 N SR 75,THORNTOWN,IN,46071
3490,WESTERN SCHOOL CORP,2600 S 600 W,RUSSIAVILLE,IN,46979
8355,WESTERN WAYNE SCHOOLS,PO BOX 217,PERSHING,IN,47370
3030,WESTFIELD-WASHINGTON SCHOOLS,322 W MAIN ST,WESTFIELD,IN,46074
4525,WESTVIEW SCHOOL CORPORATION,1545 S 600 W,TOPEKA,IN,46571
2980,WHITE RIVER VALLEY SCH DIST,PO BOX 1470,SWITZ CITY,IN,47465
4760,WHITING SCHOOL CITY,1500 CENTER ST,WHITING,IN,46394
4455,WHITKO COMMUNITY SCHOOL CORP,PO BOX 114,PIERCETON,IN,46562
8665,WHITLEY CO CONS SCHOOLS,107 N WALNUT ST,COLUMBIA CITY,IN,46725
9540,WILSON EDUCATION CTR CORP,PO BOX 217,CHARLESTOWN,IN,47111
9845,XAVIER SCHOOL OF EXCELLENCE,850 W JACKSON BLVD STE 850,CHICAGO,IN,60607
1910,YORKTOWN COMMUNITY SCHOOLS,2311 S BROADWAY ST,YORKTOWN,IN,47396
630,ZIONSVILLE COMMUNITY SCHOOLS,900 MULBERRY ST,ZIONSVILLE,IN,46077
